[
    {
        "Altitude(m)": 611965.2251704838,
        "Argument of Periapsis(deg)": 0.0,
        "Eccentricity": 0.0,
        "Inclination(deg)": 60.0,
        "Latitude(deg)": 59.140282252468786,
        "Longitude(deg)": 48.96967386478594,
        "Mean Anomaly(deg)": 81.81820000000002,
        "RAAN(deg)": 75.0,
        "Satellite Name": "Test1 335",
        "Satellite Number": 335,
        "Semi-Major Axis(m)": 6980739.136638005,
        "Time(s)": 0
    },
    {
        "Altitude(m)": 611995.8511224285,
        "Argument of Periapsis(deg)": 0.00010418945913296404,
        "Eccentricity": 0.0,
        "Inclination(deg)": 60.0,
        "Latitude(deg)": 59.28338391911145,
        "Longitude(deg)": 50.10303925647548,
        "Mean Anomaly(deg)": 82.43830614546184,
        "RAAN(deg)": 74.99957995086027,
        "Satellite Name": "Test1 335",
        "Satellite Number": 335,
        "Semi-Major Axis(m)": 6980739.136638005,
        "Time(s)": 10
    }
]